#dP2021  3 14  0  0  0.00000000      96 __u+U ITR00 FIT  IAC
## 2149      0.00000000   900.00000000 59287 0.0000000000000
+  116   C06C07C08C09C10C11C12C13C14C16C19C20C21C22C23C24C25
+        C26C27C28C29C30C32C33C34C35C36C37C38C39C40C41C42C43
+        C44C45C46E01E02E03E04E05E07E08E09E11E12E13E14E15E18
+        E19E21E24E25E26E27E30E31E33G01G02G03G04G05G06G07G08
+        G09G10G11G12G13G14G15G16G17G18G19G20G21G22G23G24G25
+        G26G27G28G29G30G31G32J01J02J03R01R02R03R04R05R07R08
+        R09R11R12R13R14R15R16R17R18R19R20R21R22R24  0  0  0
++         9  9  9  8  8  7  6  8  7  8  7  8  6  6  8  6  6
++         7  7  6  8  6  9  7  7  7  7  6  6  8  9  7  8  8
++         7  8  7  6  6  6  6  6  6  5  6  7  8  7  6  5  6
++         6  7  4  6  7  8  5  8  5  5  5  5  6  5  6  6  6
++         6  6  7  6  6  5  5  6  6  5  5  5  7  6  5  7  4
++         6  7  4  5  6  6  7 10  8  8  6  7  7  7  6  7  7
++         7  7  6  8  7  7  7  7  7  7  8  7  7  7  0  0  0
%c M  cc GPS ccc cccc cccc cccc cccc ccccc ccccc ccccc ccccc
%c cc cc ccc ccc cccc cccc cccc cccc ccccc ccccc ccccc ccccc
%f  0.0000000  0.000000000  0.00000000000  0.000000000000000
%f  0.0000000  0.000000000  0.00000000000  0.000000000000000
%i    0    0    0    0      0      0      0      0         0
%i    0    0    0    0      0      0      0      0         0
/* INFORMATION & ANALYSIS CENTER (IAC)      ULTRA-RAPID DATA
/* S/V CLOCKS ARE ALIGNED TO GNSS TIME                      
/* G:C1WC2W R:C1PC2P E:C1XC5X C:C2IC6I J:C1CC2S             
/* PCV:IGS14_2134 OL/AL:FES2004  NONE     YN ORB:CoN CLK:CoN
*  2021 03 14  0  0  0.00000000
PC06 -16458.151416  21347.429401  32761.212219    174.557047
PC07 -21871.587208  36291.926403  -2134.267050    -14.540525
PC08  -5730.674353  29909.892285 -28871.327381   -901.112180
PC09    233.970367  24958.111448  34297.347947    670.546265
PC10 -10830.954912  38220.713325 -14556.573436    -72.160759
PC11 -24286.173509 -12048.311171   6754.578916   -870.522131
PC12  -9183.106652 -16685.743321  20437.137523    862.826181
PC13   4724.100747  37886.955364 -17494.650193    179.021983
PC14 -15004.291270  -7110.055309 -22407.506152    204.246990
PC16 -11890.057030  22185.633098  33898.832613   -733.442227
PC19  20592.073508  -2100.071998  18738.644030    760.602128
PC20   8177.357891  14015.156380  22725.918325   -929.199362
PC21   9767.762949 -22489.018007 -13286.343231   -883.483981
PC22  21445.776191 -17442.620740   3720.506823   -915.517692
PC23 -12584.069907  12791.493878  21368.230505   -877.540151
PC24 -11329.649649 -24493.447211   7147.157920   -782.184899
PC25 -17286.689391  -7246.870148  20672.163269   -948.942537
PC26   -396.556370 -26355.564717  -9229.061931    935.829879
PC27  -1769.079599  15930.703118 -22861.708100    498.177193
PC28 -20458.856949   6685.953814 -17758.759651    -98.774828
PC29  27289.571764   5393.753207   2268.904672    364.610384
PC30  18026.660298  15268.769019 -14878.292507    452.147109
PC32  -9581.449859  22591.522586  13314.857347   -911.881713
PC33 -20576.787055   2171.573811 -18722.361882   -947.678292
PC34 -18536.536286 -15123.287408  14337.328765   -719.642208
PC35  20495.514061  -7229.516291  17523.690609   -376.029642
PC36  17097.448536   8005.397009 -20531.147576   -742.291926
PC37   -828.934644  26037.309796   9988.704523   -876.024027
PC38  -4646.127246  32898.385483 -25869.390925    135.649756
PC39 -10613.324121  22843.035271  33810.717447     29.351462
PC40 -17407.772680  35593.910193 -14630.115220    140.654587
PC41 -21457.364192  17391.846680  -3903.287324   -932.131529
PC42  -7600.403022 -14521.575772 -22537.205059   -937.244964
PC43 -27216.250825  -5822.066669  -1817.097137   -638.251796
PC44   1562.393505 -16032.002172  22779.583137     84.440201
PC45  12400.530038 -12897.842905 -21422.924256    385.998202
PC46  11813.022408  23954.311271  -8018.997351    364.240525
PE01  -1903.515575  28760.646479  -6716.229136  -1064.960268
PE02   1840.041690 -28758.249778   6806.374387    204.820733
PE03   1576.815198 -17917.385328 -23506.893958   -408.581332
PE04  18938.087241   9421.607001  20713.402323   -728.351705
PE05  21495.495610 -16026.076769 -12538.917376   -297.269796
PE07 -28664.584142   4817.224287  -5612.108208   -512.398235
PE08 -19221.457701  -8998.198529 -20635.317579   6033.594972
PE09  28628.635133  -5093.187207   5503.983674   5735.715696
PE11  23111.392610   5219.713558  17754.368034   6210.598876
PE12  21899.534674  19933.513381   -161.200782   5311.658266
PE13 -23211.215452  -5545.241767 -17494.865945    413.502549
PE14  -1358.176764  20577.810409 -24935.495069  -1360.852400
PE15 -21959.405930 -19839.480447    156.611871    824.803927
PE18  -6869.565218 -14506.794547  17773.234972  -1488.091442
PE19  -4189.790940  18155.920953  23004.757889    226.152403
PE21 -13224.911286  23900.877839  11386.274664   -653.452934
PE24  17358.559707  -4116.433503 -23641.319099   -791.289037
PE25  13312.880479 -23786.240654 -11551.288752   -528.401188
PE26 -10316.828515  12637.270371 -24690.462821   2045.145076
PE27 -17324.609497   4969.795760  23475.284410     11.022782
PE30 -10711.228363 -17601.795408  21245.041619   3109.200373
PE31  11216.714075  16734.026127 -21682.056332   -479.142928
PE33   7811.349869  22433.857102 -17659.327293   -466.503706
PG01  19374.320727  10061.042384  15121.059164    741.844675
PG02 -12843.619510 -22478.202082   6494.918517   -585.844449
PG03  16301.612172  -1249.310167  20829.986978   -107.321619
PG04  25949.557462   2113.178167   5408.401671   -186.006593
PG05  -7838.244268 -16671.565622 -19218.800236    -36.146072
PG06  -2012.232255 -21134.398876  15988.968165      0.734805
PG07  15066.374088  -4683.696730 -21084.930986     88.993096
PG08  22705.332937   6127.662279 -12632.049034    -13.627774
PG09  25034.521098  -6924.722686  -5660.544391   -330.816807
PG10 -11526.643157  23735.312704  -1104.600074    -80.418846
PG11  24463.060533   8714.493830   4125.067075      0.357973
PG12 -14662.759509  -3694.788800  21570.483704    -13.545674
PG13 -14439.521660 -13039.164999 -18272.294486    107.518285
PG14  13434.058657 -22789.479145  -2302.184100     99.868269
PG15 -23430.837337  -4444.252348 -12409.068437   -163.322538
PG16   3842.153696  18693.139627 -18510.068964   -293.605297
PG17  12897.459013 -13414.181319  19378.647471    409.229405
PG18 -12507.778335   8425.581658 -21868.796999    350.417558
PG19   4164.687470 -14424.202763  21617.028745    -26.718522
PG20      0.000000      0.000000      0.000000 999999.999999
PG21  20696.845572  14785.101777   9136.181203    102.904999
PG22  13666.353971   8682.004385  21269.140887   -661.029911
PG23 -16161.756328  17628.944103 -11527.871972    117.568885
PG24 -20697.271983 -13515.464376   9978.085584      1.120579
PG25 -17447.014848  11332.607213  16086.527101     98.289621
PG26  -2111.941141  24434.972282  -9906.457863     57.675658
PG27  12023.049166  12605.371531 -20321.384201    -93.469774
PG28  12434.528260 -23572.563600   1344.660150    602.550351
PG29 -25388.633018   4817.901764  -6271.881810   -311.338006
PG30   6010.460831 -16783.361773 -19572.330690   -398.020768
PG31   3572.926454  22285.322686  13541.186196   -105.432250
PG32 -10578.461168  14821.348011  19378.079657     21.109990
PJ01 -29555.645860  29833.699732   8704.600303   -354.815271
PJ02 -28533.756840  25760.190805  22177.311652      3.319179
PJ03 -30042.154642  15812.140051 -20404.928720     -1.714589
PR01 -17040.159387    740.414276 -18968.684906     76.357714
PR02 -21421.954013  13773.948027   -612.701968    470.631813
PR03 -11368.002892  16573.818915  15719.827944     32.349693
PR04   4775.745021   9818.802016  23081.904896     77.774005
PR05  18378.217857  -2292.602877  17564.362620     68.111351
PR07  10972.697851 -16482.950533 -16068.032938    -42.550601
PR08  -4847.722842  -9877.711905 -22956.539094    -57.905968
PR09   9068.294252 -12443.147265 -20304.091433    -17.256089
PR11  -6621.525930 -22474.540019  10082.265968      2.318029
PR12 -10970.005815  -7138.253094  21919.025423    212.343199
PR13  -8944.478346  11956.690747  20657.621721    -51.960587
PR14  -1628.083648  24503.113806   6925.108352     61.986917
PR15   6481.358279  22362.482691 -10401.070459    104.937409
PR16  11338.063890   5689.404853 -22136.111884    -12.457316
PR17   -494.278364  11339.976035 -22829.090370    407.746737
PR18  15501.196609  14797.494437 -13865.876019     69.692626
PR19  22782.867488  11350.776278   1698.644870   -135.604285
PR20  17026.792994   -425.292507  19019.428915    -45.171252
PR21   -747.052965 -11771.091885  22622.670220   -194.175450
PR22 -16156.748308 -14772.975028  12991.214195   -102.456605
PR24 -16668.864629   1486.807761 -19233.937390     34.898059
EOF
